NORAD_CAT_ID,OBJECT_NAME,OBJECT_TYPE,EPOCH,MEAN_MOTION,ECCENTRICITY,INCLINATION,RA_OF_ASC_NODE,ARG_OF_PERICENTER,MEAN_ANOMALY,BSTAR,MEAN_MOTION_DOT,MEAN_MOTION_DDOT,TLE_LINE0,TLE_LINE1,TLE_LINE2,SEMIMAJOR_AXIS,PERIOD,APOGEE,PERIGEE,DECAYED
52635.0,STARLINK-3978,PAYLOAD,2023-03-15 12:00:53,15.08882019,0.0001376,53.2155,113.1705,94.2544,265.8606,0.0016132,0.00025509,0.0,0 STARLINK-3978,1 52635U 22052AP  23074.50061947  .00025509  00000-0  16132-2 0  9996,2 52635  53.2155 113.1705 0001376  94.2544 265.8606 15.08882019 46552,6917.752,95.435,540.569,538.665,0.0
52635.0,STARLINK-3978,PAYLOAD,2023-03-15 19:57:48,15.08894757,0.0001401,53.2154,111.6834,87.6704,272.4448,0.0013982,0.00022068,0.0,0 STARLINK-3978,1 52635U 22052AP  23074.83180872  .00022068  00000-0  13982-2 0  9998,2 52635  53.2154 111.6834 0001401  87.6704 272.4448 15.08894757 46606,6917.713,95.434,540.547,538.609,0.0
52635.0,STARLINK-3978,PAYLOAD,2023-03-16 08:40:54,15.08851597,0.0001143,53.2154,109.3039,109.6994,250.4122,0.0004372,6.679e-05,0.0,0 STARLINK-3978,1 52635U 22052AP  23075.36174049  .00006679  00000-0  43720-3 0  9990,2 52635  53.2154 109.3039 0001143 109.6994 250.4122 15.08851597 47056,6917.845,95.437,540.501,538.919,0.0
52635.0,STARLINK-3978,PAYLOAD,2023-03-16 11:51:40,15.088478,0.0001109,53.216,108.7089,106.2528,253.8586,0.00037253,5.647e-05,0.0,0 STARLINK-3978,1 52635U 22052AP  23075.49422082  .00005647  00000-0  37253-3 0  9995,2 52635  53.2160 108.7089 0001109 106.2528 253.8586 15.08847800 46703,6917.857,95.437,540.489,538.954,0.0
52635.0,STARLINK-3978,PAYLOAD,2023-03-17 08:31:43,15.08815128,0.0001159,53.2161,104.8425,102.5308,257.5813,0.00077,0.0001198,0.0,0 STARLINK-3978,1 52635U 22052AP  23076.35535965  .00011980  00000-0  77000-3 0  9997,2 52635  53.2161 104.8425 0001159 102.5308 257.5813 15.08815128 47203,6917.956,95.439,540.623,539.02,0.0
52635.0,STARLINK-3978,PAYLOAD,2023-03-17 11:42:29,15.0881664,0.0001256,53.2161,104.2479,104.9027,255.2104,0.00085716,0.00013371,0.0,0 STARLINK-3978,1 52635U 22052AP  23076.48784211  .00013371  00000-0  85716-3 0  9990,2 52635  53.2161 104.2479 0001256 104.9027 255.2104 15.08816640 46856,6917.952,95.439,540.686,538.948,0.0
52635.0,STARLINK-3978,PAYLOAD,2023-03-17 13:17:52,15.08819119,0.0001248,53.2161,103.9506,106.1234,253.9896,0.00084799,0.00013226,0.0,0 STARLINK-3978,1 52635U 22052AP  23076.55408261  .00013226  00000-0  84799-3 0  9995,2 52635  53.2161 103.9506 0001248 106.1234 253.9896 15.08819119 46866,6917.944,95.439,540.673,538.946,0.0
52635.0,STARLINK-3978,PAYLOAD,2023-03-18 02:00:57,15.08843514,9.86e-05,53.2156,101.5721,96.0863,264.0242,0.00092313,0.00014436,0.0,0 STARLINK-3978,1 52635U 22052AP  23077.08400148  .00014436  00000-0  92313-3 0  9995,2 52635  53.2156 101.5721 0000986  96.0863 264.0242 15.08843514 47311,6917.87,95.437,540.417,539.053,0.0
52635.0,STARLINK-3978,PAYLOAD,2023-03-18 17:54:48,15.08846062,0.0001297,53.2169,98.5978,96.0763,264.0377,0.00031178,4.678e-05,0.0,0 STARLINK-3978,1 52635U 22052AP  23077.74639830  .00004678  00000-0  31178-3 0  9999,2 52635  53.2169  98.5978 0001297  96.0763 264.0377 15.08846062 47410,6917.862,95.437,540.624,538.83,0.0
52635.0,STARLINK-3978,PAYLOAD,2023-03-19 09:48:39,15.0886325,0.0001134,53.2161,95.6256,91.5555,268.5567,0.0012483,0.00019647,0.0,0 STARLINK-3978,1 52635U 22052AP  23078.40878987  .00019647  00000-0  12483-2 0  9990,2 52635  53.2161  95.6256 0001134  91.5555 268.5567 15.08863250 47517,6917.809,95.436,540.459,538.89,0.0
52635.0,STARLINK-3978,PAYLOAD,2023-03-19 17:45:35,15.08857777,0.0001517,53.2162,94.138,82.4775,277.639,0.00086622,0.00013531,0.0,0 STARLINK-3978,1 52635U 22052AP  23078.73999090  .00013531  00000-0  86622-3 0  9998,2 52635  53.2162  94.1380 0001517  82.4775 277.6390 15.08857777 47565,6917.826,95.436,540.74,538.642,0.0
52635.0,STARLINK-3978,PAYLOAD,2023-03-20 11:14:49,15.08844892,0.0001084,53.2161,90.867,85.3369,274.7746,0.00046168,7.068e-05,0.0,0 STARLINK-3978,1 52635U 22052AP  23079.46863197  .00007068  00000-0  46168-3 0  9996,2 52635  53.2161  90.8670 0001084  85.3369 274.7746 15.08844892 47678,6917.865,95.437,540.48,538.981,0.0
52635.0,STARLINK-3978,PAYLOAD,2023-03-20 17:36:22,15.08838693,0.0001351,53.216,89.6772,93.1623,266.9524,0.00039454,5.997e-05,0.0,0 STARLINK-3978,1 52635U 22052AP  23079.73359544  .00005997  00000-0  39454-3 0  9991,2 52635  53.2160  89.6772 0001351  93.1623 266.9524 15.08838693 47717,6917.884,95.438,540.684,538.815,0.0
52635.0,STARLINK-3978,PAYLOAD,2023-03-21 07:54:50,15.08847938,0.0001227,53.2157,87.0009,93.064,267.0493,0.00060211,9.31e-05,0.0,0 STARLINK-3978,1 52635U 22052AP  23080.32975373  .00009310  00000-0  60211-3 0  9990,2 52635  53.2157  87.0009 0001227  93.0640 267.0493 15.08847938 47436,6917.856,95.437,540.57,538.872,0.0
52635.0,STARLINK-3978,PAYLOAD,2023-03-21 17:27:09,15.08844675,0.0001305,53.2158,85.2157,85.2495,274.8646,0.0003097,4.645e-05,0.0,0 STARLINK-3978,1 52635U 22052AP  23080.72719413  .00004645  00000-0  30970-3 0  9990,2 52635  53.2158  85.2157 0001305  85.2495 274.8646 15.08844675 47496,6917.866,95.437,540.634,538.828,0.0
52635.0,STARLINK-3978,PAYLOAD,2023-03-22 04:34:51,15.08840266,0.0001363,53.2165,83.1342,84.9116,275.2032,0.00012955,1.774e-05,0.0,0 STARLINK-3978,1 52635U 22052AP  23081.19087582  .00001774  00000-0  12955-3 0  9990,2 52635  53.2165  83.1342 0001363  84.9116 275.2032 15.08840266 47932,6917.88,95.438,540.687,538.802,0.0
52635.0,STARLINK-3978,PAYLOAD,2023-03-22 17:17:56,15.08843167,0.0001268,53.2164,80.7565,83.1172,276.9965,0.00014946,2.092e-05,0.0,0 STARLINK-3978,1 52635U 22052AP  23081.72079510  .00002092  00000-0  14946-3 0  9997,2 52635  53.2164  80.7565 0001268  83.1172 276.9965 15.08843167 47642,6917.871,95.437,540.613,538.859,0.0
52635.0,STARLINK-3978,PAYLOAD,2023-03-23 04:25:37,15.08861153,0.0001315,53.2168,78.6748,80.1767,279.9374,0.00046485,7.122e-05,0.0,0 STARLINK-3978,1 52635U 22052AP  23082.18446722  .00007122  00000-0  46485-3 0  9993,2 52635  53.2168  78.6748 0001315  80.1767 279.9374 15.08861153 48086,6917.816,95.436,540.59,538.771,0.0
52635.0,STARLINK-3978,PAYLOAD,2023-03-23 09:11:47,15.08873954,0.0001423,53.2161,77.7826,79.804,280.3112,0.00096847,0.00015173,0.0,0 STARLINK-3978,1 52635U 22052AP  23082.38318352  .00015173  00000-0  96847-3 0  9994,2 52635  53.2161  77.7826 0001423  79.8040 280.3112 15.08873954 47745,6917.777,95.435,540.626,538.657,0.0
52635.0,STARLINK-3978,PAYLOAD,2023-03-24 04:16:25,15.08871843,0.0001363,53.2167,74.2156,81.2042,278.9104,0.0016294,0.00025762,0.0,0 STARLINK-3978,1 52635U 22052AP  23083.17806790  .00025762  00000-0  16294-2 0  9992,2 52635  53.2167  74.2156 0001363  81.2042 278.9104 15.08871843 48235,6917.783,95.436,540.591,538.705,0.0
52635.0,STARLINK-3978,PAYLOAD,2023-03-24 10:37:57,15.08872117,0.0001398,53.217,73.0254,94.4007,265.7145,0.0014854,0.00023452,0.0,0 STARLINK-3978,1 52635U 22052AP  23083.44302363  .00023452  00000-0  14854-2 0  9993,2 52635  53.2170  73.0254 0001398  94.4007 265.7145 15.08872117 48278,6917.782,95.436,540.614,538.68,0.0
52635.0,STARLINK-3978,PAYLOAD,2023-03-25 04:07:12,15.08838231,0.000136,53.2181,69.7536,117.6599,242.4532,0.0012711,0.00019998,0.0,0 STARLINK-3978,1 52635U 22052AP  23084.17167284  .00019998  00000-0  12711-2 0  9995,2 52635  53.2181  69.7536 0001360 117.6599 242.4532 15.08838231 48381,6917.886,95.438,540.692,538.81,0.0
52635.0,STARLINK-3978,PAYLOAD,2023-03-25 10:28:45,15.08848945,0.0001285,53.2182,68.5638,108.9518,251.1614,0.0015765,0.00024897,0.0,0 STARLINK-3978,1 52635U 22052AP  23084.43663292  .00024897  00000-0  15765-2 0  9990,2 52635  53.2182  68.5638 0001285 108.9518 251.1614 15.08848945 48057,6917.853,95.437,540.607,538.829,0.0
52635.0,STARLINK-3978,PAYLOAD,2023-03-26 05:33:23,15.08861766,0.0001401,53.2194,64.9976,110.3099,249.8044,0.0023143,0.00036758,0.0,0 STARLINK-3978,1 52635U 22052AP  23085.23151724  .00036758  00000-0  23143-2 0  9999,2 52635  53.2194  64.9976 0001401 110.3099 249.8044 15.08861766 48547,6917.814,95.436,540.648,538.71,0.0
52635.0,STARLINK-3978,PAYLOAD,2023-03-26 10:19:32,15.08848959,0.0001031,53.2188,64.1042,92.412,267.699,0.0013445,0.0002118,0.0,0 STARLINK-3978,1 52635U 22052AP  23085.43023972  .00021180  00000-0  13445-2 0  9991,2 52635  53.2188  64.1042 0001031  92.4120 267.6990 15.08848959 48570,6917.853,95.437,540.431,539.005,0.0
52635.0,STARLINK-3978,PAYLOAD,2023-03-26 23:02:38,15.08841853,9.69e-05,53.2193,61.7266,79.4795,280.6306,0.00094383,0.00014766,0.0,0 STARLINK-3978,1 52635U 22052AP  23085.96016339  .00014766  00000-0  94383-3 0  9991,2 52635  53.2193  61.7266 0000969  79.4795 280.6306 15.08841853 48289,6917.875,95.437,540.41,539.069,0.0
52635.0,STARLINK-3978,PAYLOAD,2023-03-27 05:24:10,15.08857959,0.0001115,53.2184,60.537,100.6985,259.4132,0.0016295,0.00025753,0.0,0 STARLINK-3978,1 52635U 22052AP  23086.22512014  .00025753  00000-0  16295-2 0  9995,2 52635  53.2184  60.5370 0001115 100.6985 259.4132 15.08857959 48694,6917.825,95.436,540.462,538.919,0.0
52635.0,STARLINK-3978,PAYLOAD,2023-03-27 08:34:56,15.08865675,0.00011,53.2187,59.9422,96.5988,263.513,0.0017624,0.00027892,0.0,0 STARLINK-3978,1 52635U 22052AP  23086.35759829  .00027892  00000-0  17624-2 0  9999,2 52635  53.2187  59.9422 0001100  96.5988 263.5130 15.08865675 48347,6917.802,95.436,540.428,538.906,0.0
52635.0,STARLINK-3978,PAYLOAD,2023-03-28 03:39:34,15.08833304,0.0001364,53.2186,56.3747,102.5889,257.5256,-1.3973e-05,-5.1e-06,0.0,0 STARLINK-3978,1 52635U 22052AP  23087.15248659 -.00000510  00000-0 -13973-4 0  9997,2 52635  53.2186  56.3747 0001364 102.5889 257.5256 15.08833304 48837,6917.901,95.438,540.709,538.822,0.0
52635.0,STARLINK-3978,PAYLOAD,2023-03-28 10:01:07,15.08839841,0.0001246,53.2178,55.1843,94.972,265.1414,0.00061539,9.52e-05,0.0,0 STARLINK-3978,1 52635U 22052AP  23087.41744791  .00009520  00000-0  61539-3 0  9992,2 52635  53.2178  55.1843 0001246  94.9720 265.1414 15.08839841 48506,6917.881,95.438,540.608,538.884,0.0
